[{"OBJECT_NAME":"ONEWEB-0596","OBJECT_ID":"2022-166W","EPOCH":"2026-03-09T21:59:26.696544","MEAN_MOTION":13.2182407,"ECCENTRICITY":0.00017012,"INCLINATION":87.9164,"RA_OF_ASC_NODE":263.7798,"ARG_OF_PERICENTER":91.0554,"MEAN_ANOMALY":269.0775,"EPHEMERIS_TYPE":0,"CLASSIFICATION_TYPE":"U","NORAD_CAT_ID":54662,"ELEMENT_SET_NO":999,"REV_AT_EPOCH":15842,"BSTAR":-0.00016422168,"MEAN_MOTION_DOT":-5.5e-7,"MEAN_MOTION_DDOT":0},{"OBJECT_NAME":"SCOUT G-1 R\/B","OBJECT_ID":"1985-066C","EPOCH":"2026-03-09T14:12:10.795104","MEAN_MOTION":13.35448878,"ECCENTRICITY":0.0167666,"INCLINATION":90.1655,"RA_OF_ASC_NODE":96.016,"ARG_OF_PERICENTER":227.1317,"MEAN_ANOMALY":131.5642,"EPHEMERIS_TYPE":0,"CLASSIFICATION_TYPE":"U","NORAD_CAT_ID":15938,"ELEMENT_SET_NO":999,"REV_AT_EPOCH":97540,"BSTAR":9.1498e-5,"MEAN_MOTION_DOT":5.8e-7,"MEAN_MOTION_DDOT":0}]
